{
    "links": {
        "self": "http://www.neowsapp.com/rest/v1/neo/3599683?api_key=iIulBulltgU6a56xZRHN4H3l9WmuAYTsLGpBGhQ2"
    },
    "id": "3599683",
    "neo_reference_id": "3599683",
    "name": "(2012 DK14)",
    "designation": "2012 DK14",
    "nasa_jpl_url": "http://ssd.jpl.nasa.gov/sbdb.cgi?sstr=3599683",
    "absolute_magnitude_h": 23.9,
    "estimated_diameter": {
        "kilometers": {
            "estimated_diameter_min": 0.04411182,
            "estimated_diameter_max": 0.0986370281
        },
        "meters": {
            "estimated_diameter_min": 44.1118199997,
            "estimated_diameter_max": 98.6370281305
        },
        "miles": {
            "estimated_diameter_min": 0.0274098057,
            "estimated_diameter_max": 0.0612901888
        },
        "feet": {
            "estimated_diameter_min": 144.7238235278,
            "estimated_diameter_max": 323.6123073718
        }
    },
    "is_potentially_hazardous_asteroid": false,
    "close_approach_data": [
        {
            "close_approach_date": "2012-03-06",
            "close_approach_date_full": "2012-Mar-06 01:20",
            "epoch_date_close_approach": 1330996800000,
            "relative_velocity": {
                "kilometers_per_second": "13.6572052938",
                "kilometers_per_hour": "49165.9390576238",
                "miles_per_hour": "30549.8025216663"
            },
            "miss_distance": {
                "astronomical": "0.087258075",
                "lunar": "33.943391175",
                "kilometers": "13053622.16030025",
                "miles": "8111144.69163345"
            },
            "orbiting_body": "Earth"
        },
        {
            "close_approach_date": "2012-07-24",
            "close_approach_date_full": "2012-Jul-24 10:58",
            "epoch_date_close_approach": 1343127480000,
            "relative_velocity": {
                "kilometers_per_second": "10.0490600203",
                "kilometers_per_hour": "36176.6160729356",
                "miles_per_hour": "22478.7423593194"
            },
            "miss_distance": {
                "astronomical": "0.489110397",
                "lunar": "190.263944433",
                "kilometers": "73169873.58605439",
                "miles": "45465651.176114982"
            },
            "orbiting_body": "Earth"
        }
    ],
    "orbital_data": {
        "orbit_id": "5",
        "orbit_determination_date": "2017-04-06 08:50:51",
        "first_observation_date": "2012-02-23",
        "last_observation_date": "2012-02-26",
        "data_arc_in_days": 3,
        "observations_used": 20,
        "orbit_uncertainty": "9",
        "minimum_orbit_intersection": ".0603499",
        "jupiter_tisserand_invariant": "4.098",
        "epoch_osculation": "2455981.5",
        "eccentricity": ".4546603320514918",
        "semi_major_axis": "1.650375831579462",
        "inclination": "19.55188283825225",
        "ascending_node_longitude": "335.480535002634",
        "orbital_period": "774.4131332488319",
        "perihelion_distance": ".9000154079837871",
        "perihelion_argument": "241.4016706608051",
        "aphelion_distance": "2.400736255175137",
        "perihelion_time": "2456035.590102537163",
        "mean_anomaly": "334.8552341413845",
        "mean_motion": ".4648681492393105",
        "equinox": "J2000",
        "orbit_class": {
            "orbit_class_type": "APO",
            "orbit_class_description": "Near-Earth asteroid orbits which cross the Earth’s orbit similar to that of 1862 Apollo",
            "orbit_class_range": "a (semi-major axis) > 1.0 AU; q (perihelion) < 1.017 AU"
        }
    },
    "is_sentry_object": false
}